[
  {
    "id": "place-referral-001",
    "placeName": "Manda Hill Shopping Mall 1",
    "location": {
      "latitude": -15.3875,
      "longitude": 28.3228
    },
    "referralCode": "MANDA2024",
    "totalReferrals": 25,
    "totalCommission": 12500.0
  },
  {
    "id": "place-referral-002",
    "placeName": "Manda Hill Shopping Mall 1",
    "location": {
      "latitude": -15.3875,
      "longitude": 28.3228
    },
    "referralCode": "MANDA2024",
    "totalReferrals": 25,
    "totalCommission": 12500.0
  },
  {
    "id": "place-referral-003",
    "placeName": "Manda Hill Shopping Mall 1",
    "location": {
      "latitude": -15.3875,
      "longitude": 28.3228
    },
    "referralCode": "MANDA2024",
    "totalReferrals": 25,
    "totalCommission": 12500.0
  },
  {
    "id": "place-referral-004",
    "placeName": "Manda Hill Shopping Mall 1",
    "location": {
      "latitude": -15.3875,
      "longitude": 28.3228
    },
    "referralCode": "MANDA2024",
    "totalReferrals": 25,
    "totalCommission": 12500.0
  },
  {
    "id": "place-referral-005",
    "placeName": "Manda Hill Shopping Mall 1",
    "location": {
      "latitude": -15.3875,
      "longitude": 28.3228
    },
    "referralCode": "MANDA2024",
    "totalReferrals": 25,
    "totalCommission": 12500.0
  },
  {
    "id": "place-referral-006",
    "placeName": "Manda Hill Shopping Mall 1",
    "location": {
      "latitude": -15.3875,
      "longitude": 28.3228
    },
    "referralCode": "MANDA2024",
    "totalReferrals": 25,
    "totalCommission": 12500.0
  },
  {
    "id": "place-referral-007",
    "placeName": "Manda Hill Shopping Mall 1",
    "location": {
      "latitude": -15.3875,
      "longitude": 28.3228
    },
    "referralCode": "MANDA2024",
    "totalReferrals": 25,
    "totalCommission": 12500.0
  },
  {
    "id": "place-referral-008",
    "placeName": "Manda Hill Shopping Mall 1",
    "location": {
      "latitude": -15.3875,
      "longitude": 28.3228
    },
    "referralCode": "MANDA2024",
    "totalReferrals": 25,
    "totalCommission": 12500.0
  },
  {
    "id": "place-referral-009",
    "placeName": "Manda Hill Shopping Mall 1",
    "location": {
      "latitude": -15.3875,
      "longitude": 28.3228
    },
    "referralCode": "MANDA2024",
    "totalReferrals": 25,
    "totalCommission": 12500.0
  },
  {
    "id": "place-referral-010",
    "placeName": "Manda Hill Shopping Mall 1",
    "location": {
      "latitude": -15.3875,
      "longitude": 28.3228
    },
    "referralCode": "MANDA2024",
    "totalReferrals": 25,
    "totalCommission": 12500.0
  },
  {
    "id": "place-referral-011",
    "placeName": "Manda Hill Shopping Mall 1",
    "location": {
      "latitude": -15.3875,
      "longitude": 28.3228
    },
    "referralCode": "MANDA2024",
    "totalReferrals": 25,
    "totalCommission": 12500.0
  },
  {
    "id": "place-referral-012",
    "placeName": "Manda Hill Shopping Mall 1",
    "location": {
      "latitude": -15.3875,
      "longitude": 28.3228
    },
    "referralCode": "MANDA2024",
    "totalReferrals": 25,
    "totalCommission": 12500.0
  },
  {
    "id": "place-referral-013",
    "placeName": "Manda Hill Shopping Mall 1",
    "location": {
      "latitude": -15.3875,
      "longitude": 28.3228
    },
    "referralCode": "MANDA2024",
    "totalReferrals": 25,
    "totalCommission": 12500.0
  },
  {
    "id": "place-referral-014",
    "placeName": "Manda Hill Shopping Mall 1",
    "location": {
      "latitude": -15.3875,
      "longitude": 28.3228
    },
    "referralCode": "MANDA2024",
    "totalReferrals": 25,
    "totalCommission": 12500.0
  },
  {
    "id": "place-referral-015",
    "placeName": "Manda Hill Shopping Mall 1",
    "location": {
      "latitude": -15.3875,
      "longitude": 28.3228
    },
    "referralCode": "MANDA2024",
    "totalReferrals": 25,
    "totalCommission": 12500.0
  },
  {
    "id": "place-referral-016",
    "placeName": "Manda Hill Shopping Mall 1",
    "location": {
      "latitude": -15.3875,
      "longitude": 28.3228
    },
    "referralCode": "MANDA2024",
    "totalReferrals": 25,
    "totalCommission": 12500.0
  },
  {
    "id": "place-referral-017",
    "placeName": "Manda Hill Shopping Mall 1",
    "location": {
      "latitude": -15.3875,
      "longitude": 28.3228
    },
    "referralCode": "MANDA2024",
    "totalReferrals": 25,
    "totalCommission": 12500.0
  },
  {
    "id": "place-referral-018",
    "placeName": "Manda Hill Shopping Mall 1",
    "location": {
      "latitude": -15.3875,
      "longitude": 28.3228
    },
    "referralCode": "MANDA2024",
    "totalReferrals": 25,
    "totalCommission": 12500.0
  },
  {
    "id": "place-referral-019",
    "placeName": "Manda Hill Shopping Mall 1",
    "location": {
      "latitude": -15.3875,
      "longitude": 28.3228
    },
    "referralCode": "MANDA2024",
    "totalReferrals": 25,
    "totalCommission": 12500.0
  },
  {
    "id": "place-referral-020",
    "placeName": "Manda Hill Shopping Mall 1",
    "location": {
      "latitude": -15.3875,
      "longitude": 28.3228
    },
    "referralCode": "MANDA2024",
    "totalReferrals": 25,
    "totalCommission": 12500.0
  },
  {
    "id": "place-referral-021",
    "placeName": "Manda Hill Shopping Mall 1",
    "location": {
      "latitude": -15.3875,
      "longitude": 28.3228
    },
    "referralCode": "MANDA2024",
    "totalReferrals": 25,
    "totalCommission": 12500.0
  },
  {
    "id": "place-referral-022",
    "placeName": "Manda Hill Shopping Mall 1",
    "location": {
      "latitude": -15.3875,
      "longitude": 28.3228
    },
    "referralCode": "MANDA2024",
    "totalReferrals": 25,
    "totalCommission": 12500.0
  },
  {
    "id": "place-referral-023",
    "placeName": "Manda Hill Shopping Mall 1",
    "location": {
      "latitude": -15.3875,
      "longitude": 28.3228
    },
    "referralCode": "MANDA2024",
    "totalReferrals": 25,
    "totalCommission": 12500.0
  },
  {
    "id": "place-referral-024",
    "placeName": "Manda Hill Shopping Mall 1",
    "location": {
      "latitude": -15.3875,
      "longitude": 28.3228
    },
    "referralCode": "MANDA2024",
    "totalReferrals": 25,
    "totalCommission": 12500.0
  },
  {
    "id": "place-referral-025",
    "placeName": "Manda Hill Shopping Mall 1",
    "location": {
      "latitude": -15.3875,
      "longitude": 28.3228
    },
    "referralCode": "MANDA2024",
    "totalReferrals": 25,
    "totalCommission": 12500.0
  },
  {
    "id": "place-referral-026",
    "placeName": "Manda Hill Shopping Mall 1",
    "location": {
      "latitude": -15.3875,
      "longitude": 28.3228
    },
    "referralCode": "MANDA2024",
    "totalReferrals": 25,
    "totalCommission": 12500.0
  },
  {
    "id": "place-referral-027",
    "placeName": "Manda Hill Shopping Mall 1",
    "location": {
      "latitude": -15.3875,
      "longitude": 28.3228
    },
    "referralCode": "MANDA2024",
    "totalReferrals": 25,
    "totalCommission": 12500.0
  },
  {
    "id": "place-referral-028",
    "placeName": "Manda Hill Shopping Mall 1",
    "location": {
      "latitude": -15.3875,
      "longitude": 28.3228
    },
    "referralCode": "MANDA2024",
    "totalReferrals": 25,
    "totalCommission": 12500.0
  },
  {
    "id": "place-referral-029",
    "placeName": "Manda Hill Shopping Mall 1",
    "location": {
      "latitude": -15.3875,
      "longitude": 28.3228
    },
    "referralCode": "MANDA2024",
    "totalReferrals": 25,
    "totalCommission": 12500.0
  },
  {
    "id": "place-referral-030",
    "placeName": "Manda Hill Shopping Mall 1",
    "location": {
      "latitude": -15.3875,
      "longitude": 28.3228
    },
    "referralCode": "MANDA2024",
    "totalReferrals": 25,
    "totalCommission": 12500.0
  }
]